NORAD_CAT_ID,OBJECT_NAME,OBJECT_TYPE,EPOCH,MEAN_MOTION,ECCENTRICITY,INCLINATION,RA_OF_ASC_NODE,ARG_OF_PERICENTER,MEAN_ANOMALY,BSTAR,MEAN_MOTION_DOT,MEAN_MOTION_DDOT,TLE_LINE0,TLE_LINE1,TLE_LINE2,SEMIMAJOR_AXIS,PERIOD,APOGEE,PERIGEE,DECAYED
55414.0,STARLINK-5620,PAYLOAD,2024-08-17 13:20:08,14.98335508,0.0003075,70.0022,79.358,275.8717,84.2091,-0.00020408,-2.528e-05,0.0,0 STARLINK-5620,1 55414U 23014Z   24230.55565205 -.00002528  00000-0 -20408-3 0  9999,2 55414  70.0022  79.3580 0003075 275.8717  84.2091 14.98335508 86314,6950.176,96.107,574.178,569.904,0.0
55414.0,STARLINK-5620,PAYLOAD,2024-08-18 00:33:03,14.9836994,0.0003262,70.0026,78.1773,260.9192,99.1598,-0.0012164,-0.00014592,0.0,0 STARLINK-5620,1 55414U 23014Z   24231.02295319 -.00014592  00000-0 -12164-2 0  9991,2 55414  70.0026  78.1773 0003262 260.9192  99.1598 14.98369940 86380,6950.069,96.104,574.201,569.667,0.0
55414.0,STARLINK-5620,PAYLOAD,2024-08-18 19:46:41,14.98336116,0.000321,70.0007,76.1572,259.1411,100.9387,5.6807e-05,5.85e-06,0.0,0 STARLINK-5620,1 55414U 23014Z   24231.82408850  .00000585  00000-0  56807-4 0  9994,2 55414  70.0007  76.1572 0003210 259.1411 100.9387 14.98336116 86501,6950.174,96.107,574.27,569.808,0.0
55414.0,STARLINK-5620,PAYLOAD,2024-08-18 21:22:49,14.98334584,0.0003229,70.0006,75.9887,266.7586,93.3203,-2.4177e-05,-3.82e-06,0.0,0 STARLINK-5620,1 55414U 23014Z   24231.89085012 -.00000382  00000-0 -24177-4 0  9994,2 55414  70.0006  75.9887 0003229 266.7586  93.3203 14.98334584 86513,6950.179,96.107,574.288,569.8,0.0
55414.0,STARLINK-5620,PAYLOAD,2024-08-19 06:59:38,14.9832577,0.0003399,69.999,74.9795,274.8193,85.2578,0.00021162,2.433e-05,0.0,0 STARLINK-5620,1 55414U 23014Z   24232.29141542  .00002433  00000-0  21162-3 0  9997,2 55414  69.9990  74.9795 0003399 274.8193  85.2578 14.98325770 86579,6950.206,96.107,574.433,569.709,0.0
55414.0,STARLINK-5620,PAYLOAD,2024-08-19 23:00:58,14.98346303,0.000341,69.9992,73.2962,267.4494,92.6275,-0.0002019,-2.502e-05,0.0,0 STARLINK-5620,1 55414U 23014Z   24232.95900653 -.00002502  00000-0 -20190-3 0  9995,2 55414  69.9992  73.2962 0003410 267.4494  92.6275 14.98346303 86677,6950.142,96.106,574.377,569.637,0.0
55414.0,STARLINK-5620,PAYLOAD,2024-08-20 13:26:11,14.98331782,0.0003197,69.9995,71.7821,267.9375,92.1418,0.00012677,1.42e-05,0.0,0 STARLINK-5620,1 55414U 23014Z   24233.55985156  .00001420  00000-0  12677-3 0  9990,2 55414  69.9995  71.7821 0003197 267.9375  92.1418 14.98331782 86761,6950.187,96.107,574.274,569.83,0.0
55414.0,STARLINK-5620,PAYLOAD,2024-08-20 15:02:19,14.98332094,0.0003158,69.9995,71.6138,268.1998,91.8799,0.00013392,1.505e-05,0.0,0 STARLINK-5620,1 55414U 23014Z   24233.62661128  .00001505  00000-0  13392-3 0  9997,2 55414  69.9995  71.6138 0003158 268.1998  91.8799 14.98332094 86778,6950.186,96.107,574.246,569.857,0.0
55414.0,STARLINK-5620,PAYLOAD,2024-08-21 15:04:20,14.98329368,0.0003048,69.9995,69.0892,269.0741,91.0069,7.4012e-05,7.9e-06,0.0,0 STARLINK-5620,1 55414U 23014Z   24234.62801452  .00000790  00000-0  74012-4 0  9996,2 55414  69.9995  69.0892 0003048 269.0741  91.0069 14.98329368 86929,6950.195,96.107,574.178,569.941,0.0
55414.0,STARLINK-5620,PAYLOAD,2024-08-21 18:16:36,14.98329296,0.0003057,69.9995,68.7525,269.0703,91.0106,6.6032e-05,6.95e-06,0.0,0 STARLINK-5620,1 55414U 23014Z   24234.76153455  .00000695  00000-0  66032-4 0  9991,2 55414  69.9995  68.7525 0003057 269.0703  91.0106 14.98329296 86940,6950.195,96.107,574.185,569.935,0.0
55414.0,STARLINK-5620,PAYLOAD,2024-08-21 19:52:44,14.98329597,0.0003058,69.9994,68.5839,268.5379,91.543,5.7853e-05,5.97e-06,0.0,0 STARLINK-5620,1 55414U 23014Z   24234.82829435  .00000597  00000-0  57853-4 0  9998,2 55414  69.9994  68.5839 0003058 268.5379  91.5430 14.98329597 86959,6950.194,96.107,574.185,569.934,0.0
